[{"OBJECT_NAME":"STARLINK-33975","OBJECT_ID":"2025-091AC","EPOCH":"2026-03-09T19:21:51.575616","MEAN_MOTION":15.27618476,"ECCENTRICITY":0.00044246,"INCLINATION":43.0059,"RA_OF_ASC_NODE":51.5543,"ARG_OF_PERICENTER":308.3925,"MEAN_ANOMALY":51.6529,"EPHEMERIS_TYPE":0,"CLASSIFICATION_TYPE":"U","NORAD_CAT_ID":63802,"ELEMENT_SET_NO":999,"REV_AT_EPOCH":4903,"BSTAR":0.00092443688,"MEAN_MOTION_DOT":0.00025298,"MEAN_MOTION_DDOT":0},{"OBJECT_NAME":"ALSAT-3A","OBJECT_ID":"2026-009A","EPOCH":"2026-03-09T22:30:09.645696","MEAN_MOTION":15.23911932,"ECCENTRICITY":0.00134314,"INCLINATION":97.4617,"RA_OF_ASC_NODE":143.4537,"ARG_OF_PERICENTER":76.5175,"MEAN_ANOMALY":283.7557,"EPHEMERIS_TYPE":0,"CLASSIFICATION_TYPE":"U","NORAD_CAT_ID":67474,"ELEMENT_SET_NO":999,"REV_AT_EPOCH":816,"BSTAR":0.00035948927,"MEAN_MOTION_DOT":8.636e-5,"MEAN_MOTION_DDOT":0}]
